EUTELSAT 8 WEST B       
1 40875U 15039B   25258.58284262 -.00000082  00000+0  00000+0 0  9990
2 40875   0.0681   8.1926 0003721 167.2611  21.1688  1.00272308 36901
EUTELSAT 9B             
1 41310U 16005A   25258.33239146  .00000046  00000+0  00000+0 0  9992
2 41310   0.0547  71.7034 0002492 145.7471 265.7509  1.00273119 35360
EUTELSAT 65 WEST A      
1 41382U 16014A   25258.50024891 -.00000293  00000+0  00000+0 0  9994
2 41382   0.0757  43.2560 0002174 137.7260 288.6300  1.00272441 34789
EUTELSAT 117 WEST B     
1 41589U 16038B   25258.56134918 -.00000028  00000+0  00000+0 0  9993
2 41589   0.0375 336.2058 0000401  87.5011  16.1572  1.00268701 33900
EUTELSAT 172B           
1 42741U 17029B   25258.34836400 -.00000022  00000+0  00000+0 0  9990
2 42741   0.0165 169.0709 0000212 127.6280 355.2837  1.00270087 30972
EUTELSAT 7C             
1 44334U 19034B   25258.33794633  .00000032  00000+0  00000+0 0  9998
2 44334   0.0735 185.5319 0003124 339.4445 318.2151  1.00271088  4089
EUTELSAT 5 WEST B       
1 44624U 19067A   25258.58344928 -.00000059  00000+0  00000+0 0  9991
2 44624   0.0803 323.6996 0003131 218.9809  17.1479  1.00271146 21684
EUTELSAT KONNECT        
1 45027U 20005B   25258.33794633  .00000033  00000+0  00000+0 0  9999
2 45027   0.0651  98.8788 0001606  78.0857 306.4251  1.00269005 21577
