<?xml version="1.0" encoding="UTF-8"?>
<ndm xmlns:xsi="http://www.w3.org/2001/XMLSchema-instance" xsi:noNamespaceSchemaLocation="https://sanaregistry.org/r/ndmxml_unqualified/ndmxml-2.0.0-master-2.0.xsd">
<omm id="CCSDS_OMM_VERS" version="2.0">
<header><CREATION_DATE/><ORIGINATOR/></header><body><segment><metadata><OBJECT_NAME>EUTELSAT 8 WEST B</OBJECT_NAME><OBJECT_ID>2015-039B</OBJECT_ID><CENTER_NAME>EARTH</CENTER_NAME><REF_FRAME>TEME</REF_FRAME><TIME_SYSTEM>UTC</TIME_SYSTEM><MEAN_ELEMENT_THEORY>SGP4</MEAN_ELEMENT_THEORY></metadata><data><meanElements><EPOCH>2025-09-15T13:59:17.602368</EPOCH><MEAN_MOTION>1.00272308</MEAN_MOTION><ECCENTRICITY>.0003721</ECCENTRICITY><INCLINATION>0.0681</INCLINATION><RA_OF_ASC_NODE>8.1926</RA_OF_ASC_NODE><ARG_OF_PERICENTER>167.2611</ARG_OF_PERICENTER><MEAN_ANOMALY>21.1688</MEAN_ANOMALY></meanElements><tleParameters><EPHEMERIS_TYPE>0</EPHEMERIS_TYPE><CLASSIFICATION_TYPE>U</CLASSIFICATION_TYPE><NORAD_CAT_ID>40875</NORAD_CAT_ID><ELEMENT_SET_NO>999</ELEMENT_SET_NO><REV_AT_EPOCH>3690</REV_AT_EPOCH><BSTAR>0</BSTAR><MEAN_MOTION_DOT>-.82E-6</MEAN_MOTION_DOT><MEAN_MOTION_DDOT>0</MEAN_MOTION_DDOT></tleParameters></data></segment></body></omm>
<omm id="CCSDS_OMM_VERS" version="2.0">
<header><CREATION_DATE/><ORIGINATOR/></header><body><segment><metadata><OBJECT_NAME>EUTELSAT 9B</OBJECT_NAME><OBJECT_ID>2016-005A</OBJECT_ID><CENTER_NAME>EARTH</CENTER_NAME><REF_FRAME>TEME</REF_FRAME><TIME_SYSTEM>UTC</TIME_SYSTEM><MEAN_ELEMENT_THEORY>SGP4</MEAN_ELEMENT_THEORY></metadata><data><meanElements><EPOCH>2025-09-15T07:58:38.622144</EPOCH><MEAN_MOTION>1.00273119</MEAN_MOTION><ECCENTRICITY>.00024926</ECCENTRICITY><INCLINATION>0.0547</INCLINATION><RA_OF_ASC_NODE>71.7034</RA_OF_ASC_NODE><ARG_OF_PERICENTER>145.7471</ARG_OF_PERICENTER><MEAN_ANOMALY>265.7509</MEAN_ANOMALY></meanElements><tleParameters><EPHEMERIS_TYPE>0</EPHEMERIS_TYPE><CLASSIFICATION_TYPE>U</CLASSIFICATION_TYPE><NORAD_CAT_ID>41310</NORAD_CAT_ID><ELEMENT_SET_NO>999</ELEMENT_SET_NO><REV_AT_EPOCH>3536</REV_AT_EPOCH><BSTAR>0</BSTAR><MEAN_MOTION_DOT>.46E-6</MEAN_MOTION_DOT><MEAN_MOTION_DDOT>0</MEAN_MOTION_DDOT></tleParameters></data></segment></body></omm>
<omm id="CCSDS_OMM_VERS" version="2.0">
<header><CREATION_DATE/><ORIGINATOR/></header><body><segment><metadata><OBJECT_NAME>EUTELSAT 65 WEST A</OBJECT_NAME><OBJECT_ID>2016-014A</OBJECT_ID><CENTER_NAME>EARTH</CENTER_NAME><REF_FRAME>TEME</REF_FRAME><TIME_SYSTEM>UTC</TIME_SYSTEM><MEAN_ELEMENT_THEORY>SGP4</MEAN_ELEMENT_THEORY></metadata><data><meanElements><EPOCH>2025-09-15T12:00:21.505824</EPOCH><MEAN_MOTION>1.00272441</MEAN_MOTION><ECCENTRICITY>.00021745</ECCENTRICITY><INCLINATION>0.0757</INCLINATION><RA_OF_ASC_NODE>43.2560</RA_OF_ASC_NODE><ARG_OF_PERICENTER>137.7260</ARG_OF_PERICENTER><MEAN_ANOMALY>288.6300</MEAN_ANOMALY></meanElements><tleParameters><EPHEMERIS_TYPE>0</EPHEMERIS_TYPE><CLASSIFICATION_TYPE>U</CLASSIFICATION_TYPE><NORAD_CAT_ID>41382</NORAD_CAT_ID><ELEMENT_SET_NO>999</ELEMENT_SET_NO><REV_AT_EPOCH>3478</REV_AT_EPOCH><BSTAR>0</BSTAR><MEAN_MOTION_DOT>-.293E-5</MEAN_MOTION_DOT><MEAN_MOTION_DDOT>0</MEAN_MOTION_DDOT></tleParameters></data></segment></body></omm>
<omm id="CCSDS_OMM_VERS" version="2.0">
<header><CREATION_DATE/><ORIGINATOR/></header><body><segment><metadata><OBJECT_NAME>EUTELSAT 117 WEST B</OBJECT_NAME><OBJECT_ID>2016-038B</OBJECT_ID><CENTER_NAME>EARTH</CENTER_NAME><REF_FRAME>TEME</REF_FRAME><TIME_SYSTEM>UTC</TIME_SYSTEM><MEAN_ELEMENT_THEORY>SGP4</MEAN_ELEMENT_THEORY></metadata><data><meanElements><EPOCH>2025-09-15T13:28:20.569152</EPOCH><MEAN_MOTION>1.00268701</MEAN_MOTION><ECCENTRICITY>.00004015</ECCENTRICITY><INCLINATION>0.0375</INCLINATION><RA_OF_ASC_NODE>336.2058</RA_OF_ASC_NODE><ARG_OF_PERICENTER>87.5011</ARG_OF_PERICENTER><MEAN_ANOMALY>16.1572</MEAN_ANOMALY></meanElements><tleParameters><EPHEMERIS_TYPE>0</EPHEMERIS_TYPE><CLASSIFICATION_TYPE>U</CLASSIFICATION_TYPE><NORAD_CAT_ID>41589</NORAD_CAT_ID><ELEMENT_SET_NO>999</ELEMENT_SET_NO><REV_AT_EPOCH>3390</REV_AT_EPOCH><BSTAR>0</BSTAR><MEAN_MOTION_DOT>-.28E-6</MEAN_MOTION_DOT><MEAN_MOTION_DDOT>0</MEAN_MOTION_DDOT></tleParameters></data></segment></body></omm>
<omm id="CCSDS_OMM_VERS" version="2.0">
<header><CREATION_DATE/><ORIGINATOR/></header><body><segment><metadata><OBJECT_NAME>EUTELSAT 172B</OBJECT_NAME><OBJECT_ID>2017-029B</OBJECT_ID><CENTER_NAME>EARTH</CENTER_NAME><REF_FRAME>TEME</REF_FRAME><TIME_SYSTEM>UTC</TIME_SYSTEM><MEAN_ELEMENT_THEORY>SGP4</MEAN_ELEMENT_THEORY></metadata><data><meanElements><EPOCH>2025-09-15T08:21:38.649600</EPOCH><MEAN_MOTION>1.00270087</MEAN_MOTION><ECCENTRICITY>.00002126</ECCENTRICITY><INCLINATION>0.0165</INCLINATION><RA_OF_ASC_NODE>169.0709</RA_OF_ASC_NODE><ARG_OF_PERICENTER>127.6280</ARG_OF_PERICENTER><MEAN_ANOMALY>355.2837</MEAN_ANOMALY></meanElements><tleParameters><EPHEMERIS_TYPE>0</EPHEMERIS_TYPE><CLASSIFICATION_TYPE>U</CLASSIFICATION_TYPE><NORAD_CAT_ID>42741</NORAD_CAT_ID><ELEMENT_SET_NO>999</ELEMENT_SET_NO><REV_AT_EPOCH>3097</REV_AT_EPOCH><BSTAR>0</BSTAR><MEAN_MOTION_DOT>-.22E-6</MEAN_MOTION_DOT><MEAN_MOTION_DDOT>0</MEAN_MOTION_DDOT></tleParameters></data></segment></body></omm>
<omm id="CCSDS_OMM_VERS" version="2.0">
<header><CREATION_DATE/><ORIGINATOR/></header><body><segment><metadata><OBJECT_NAME>EUTELSAT 7C</OBJECT_NAME><OBJECT_ID>2019-034B</OBJECT_ID><CENTER_NAME>EARTH</CENTER_NAME><REF_FRAME>TEME</REF_FRAME><TIME_SYSTEM>UTC</TIME_SYSTEM><MEAN_ELEMENT_THEORY>SGP4</MEAN_ELEMENT_THEORY></metadata><data><meanElements><EPOCH>2025-09-15T08:06:38.562912</EPOCH><MEAN_MOTION>1.00271088</MEAN_MOTION><ECCENTRICITY>.00031248</ECCENTRICITY><INCLINATION>0.0735</INCLINATION><RA_OF_ASC_NODE>185.5319</RA_OF_ASC_NODE><ARG_OF_PERICENTER>339.4445</ARG_OF_PERICENTER><MEAN_ANOMALY>318.2151</MEAN_ANOMALY></meanElements><tleParameters><EPHEMERIS_TYPE>0</EPHEMERIS_TYPE><CLASSIFICATION_TYPE>U</CLASSIFICATION_TYPE><NORAD_CAT_ID>44334</NORAD_CAT_ID><ELEMENT_SET_NO>999</ELEMENT_SET_NO><REV_AT_EPOCH>408</REV_AT_EPOCH><BSTAR>0</BSTAR><MEAN_MOTION_DOT>.32E-6</MEAN_MOTION_DOT><MEAN_MOTION_DDOT>0</MEAN_MOTION_DDOT></tleParameters></data></segment></body></omm>
<omm id="CCSDS_OMM_VERS" version="2.0">
<header><CREATION_DATE/><ORIGINATOR/></header><body><segment><metadata><OBJECT_NAME>EUTELSAT 5 WEST B</OBJECT_NAME><OBJECT_ID>2019-067A</OBJECT_ID><CENTER_NAME>EARTH</CENTER_NAME><REF_FRAME>TEME</REF_FRAME><TIME_SYSTEM>UTC</TIME_SYSTEM><MEAN_ELEMENT_THEORY>SGP4</MEAN_ELEMENT_THEORY></metadata><data><meanElements><EPOCH>2025-09-15T14:00:10.017792</EPOCH><MEAN_MOTION>1.00271146</MEAN_MOTION><ECCENTRICITY>.00031319</ECCENTRICITY><INCLINATION>0.0803</INCLINATION><RA_OF_ASC_NODE>323.6996</RA_OF_ASC_NODE><ARG_OF_PERICENTER>218.9809</ARG_OF_PERICENTER><MEAN_ANOMALY>17.1479</MEAN_ANOMALY></meanElements><tleParameters><EPHEMERIS_TYPE>0</EPHEMERIS_TYPE><CLASSIFICATION_TYPE>U</CLASSIFICATION_TYPE><NORAD_CAT_ID>44624</NORAD_CAT_ID><ELEMENT_SET_NO>999</ELEMENT_SET_NO><REV_AT_EPOCH>2168</REV_AT_EPOCH><BSTAR>0</BSTAR><MEAN_MOTION_DOT>-.59E-6</MEAN_MOTION_DOT><MEAN_MOTION_DDOT>0</MEAN_MOTION_DDOT></tleParameters></data></segment></body></omm>
<omm id="CCSDS_OMM_VERS" version="2.0">
<header><CREATION_DATE/><ORIGINATOR/></header><body><segment><metadata><OBJECT_NAME>EUTELSAT KONNECT</OBJECT_NAME><OBJECT_ID>2020-005B</OBJECT_ID><CENTER_NAME>EARTH</CENTER_NAME><REF_FRAME>TEME</REF_FRAME><TIME_SYSTEM>UTC</TIME_SYSTEM><MEAN_ELEMENT_THEORY>SGP4</MEAN_ELEMENT_THEORY></metadata><data><meanElements><EPOCH>2025-09-15T08:06:38.562912</EPOCH><MEAN_MOTION>1.00269005</MEAN_MOTION><ECCENTRICITY>.00016069</ECCENTRICITY><INCLINATION>0.0651</INCLINATION><RA_OF_ASC_NODE>98.8788</RA_OF_ASC_NODE><ARG_OF_PERICENTER>78.0857</ARG_OF_PERICENTER><MEAN_ANOMALY>306.4251</MEAN_ANOMALY></meanElements><tleParameters><EPHEMERIS_TYPE>0</EPHEMERIS_TYPE><CLASSIFICATION_TYPE>U</CLASSIFICATION_TYPE><NORAD_CAT_ID>45027</NORAD_CAT_ID><ELEMENT_SET_NO>999</ELEMENT_SET_NO><REV_AT_EPOCH>2157</REV_AT_EPOCH><BSTAR>0</BSTAR><MEAN_MOTION_DOT>.33E-6</MEAN_MOTION_DOT><MEAN_MOTION_DDOT>0</MEAN_MOTION_DDOT></tleParameters></data></segment></body></omm>

</ndm>
